[{"OBJECT_NAME":"ASTROCAST-0404","OBJECT_ID":"2023-001DH","EPOCH":"2026-03-09T19:24:02.920896","MEAN_MOTION":15.26309833,"ECCENTRICITY":0.00068478,"INCLINATION":97.5646,"RA_OF_ASC_NODE":161.5422,"ARG_OF_PERICENTER":1.1317,"MEAN_ANOMALY":358.9936,"EPHEMERIS_TYPE":0,"CLASSIFICATION_TYPE":"U","NORAD_CAT_ID":55112,"ELEMENT_SET_NO":999,"REV_AT_EPOCH":12936,"BSTAR":0.00034435555,"MEAN_MOTION_DOT":8.87e-5,"MEAN_MOTION_DDOT":0},{"OBJECT_NAME":"STARLINK-35743","OBJECT_ID":"2025-268X","EPOCH":"2026-03-08T05:00:22.608000","MEAN_MOTION":15.27542303,"ECCENTRICITY":6.245e-5,"INCLINATION":42.9997,"RA_OF_ASC_NODE":355.3917,"ARG_OF_PERICENTER":335.4914,"MEAN_ANOMALY":24.5908,"EPHEMERIS_TYPE":0,"CLASSIFICATION_TYPE":"U","NORAD_CAT_ID":66578,"ELEMENT_SET_NO":999,"REV_AT_EPOCH":1773,"BSTAR":0.0016535397,"MEAN_MOTION_DOT":0.00045468,"MEAN_MOTION_DDOT":0}]
